{"type": "FeatureCollection", "features": [ {"type": "Feature", "properties": {"norad_id": 66660, "name": "K-HERO", "group": "last-30-days", "lat": 60.401877638065365, "lon": 105.52363475558084, "alt_km": 591.8001997768542, "timestamp": "2025-12-10T09:57:43.490440+00:00", "meta": {"OBJECT_NAME": "K-HERO", "OBJECT_ID": "2025-274L", "EPOCH": "2025-12-09T17:20:46.755168", "MEAN_MOTION": 14.92933299, "ECCENTRICITY": 0.001288, "INCLINATION": 97.7389, "RA_OF_ASC_NODE": 270.9915, "ARG_OF_PERICENTER": 292.2854, "MEAN_ANOMALY": 67.6999, "EPHEMERIS_TYPE": 0, "CLASSIFICATION_TYPE": "U", "NORAD_CAT_ID": 66660, "ELEMENT_SET_NO": 999, "REV_AT_EPOCH": 195, "BSTAR": 0.00048182, "MEAN_MOTION_DOT": 4.952e-05, "MEAN_MOTION_DDOT": 0}, "tle": {"line1": "1 66660U 25274L   25343.72276337  .00004952  00000+0  48182-3 0  9993", "line2": "2 66660  97.7389 270.9915 0012880 292.2854  67.6999 14.92933299  1955"}}, "geometry": {"type": "Point", "coordinates": [105.52363475558084, 60.401877638065365]}}, {"type": "Feature", "properties": {"norad_id": 66661, "name": "SNUGLITE-III", "group": "last-30-days", "lat": 53.20790577943988, "lon": 102.15166651588646, "alt_km": 592.4845881132533, "timestamp": "2025-12-10T09:57:43.490451+00:00", "meta": {"OBJECT_NAME": "SNUGLITE-III", "OBJECT_ID": "2025-274M", "EPOCH": "2025-12-09T18:55:23.032992", "MEAN_MOTION": 14.930742, "ECCENTRICITY": 0.0013538, "INCLINATION": 97.7388, "RA_OF_ASC_NODE": 271.0589, "ARG_OF_PERICENTER": 293.1424, "MEAN_ANOMALY": 66.8369, "EPHEMERIS_TYPE": 0, "CLASSIFICATION_TYPE": "U", "NORAD_CAT_ID": 66661, "ELEMENT_SET_NO": 999, "REV_AT_EPOCH": 196, "BSTAR": 0.00034803, "MEAN_MOTION_DOT": 3.574e-05, "MEAN_MOTION_DDOT": 0}, "tle": {"line1": "1 66661U 25274M   25343.78846103  .00003574  00000+0  34803-3 0  9998", "line2": "2 66661  97.7388 271.0589 0013538 293.1424  66.8369 14.93074200  1960"}}, "geometry": {"type": "Point", "coordinates": [102.15166651588646, 53.20790577943988]}}, {"type": "Feature", "properties": {"norad_id": 66662, "name": "2025-274N", "group": "last-30-days", "lat": 50.34737125067543, "lon": 101.11970135571458, "alt_km": 592.8300026737315, "timestamp": "2025-12-10T09:57:43.490461+00:00", "meta": {"OBJECT_NAME": "2025-274N", "OBJECT_ID": "2025-274N", "EPOCH": "2025-12-10T01:20:37.877280", "MEAN_MOTION": 14.93124387, "ECCENTRICITY": 0.0013969, "INCLINATION": 97.7386, "RA_OF_ASC_NODE": 271.3233, "ARG_OF_PERICENTER": 291.536, "MEAN_ANOMALY": 68.437, "EPHEMERIS_TYPE": 0, "CLASSIFICATION_TYPE": "U", "NORAD_CAT_ID": 66662, "ELEMENT_SET_NO": 999, "REV_AT_EPOCH": 200, "BSTAR": 0.00032849, "MEAN_MOTION_DOT": 3.375e-05, "MEAN_MOTION_DDOT": 0}, "tle": {"line1": "1 66662U 25274N   25344.05599395  .00003375  00000+0  32849-3 0  9995", "line2": "2 66662  97.7386 271.3233 0013969 291.5360  68.4370 14.93124387  2005"}}, "geometry": {"type": "Point", "coordinates": [101.11970135571458, 50.34737125067543]}}, {"type": "Feature", "properties": {"norad_id": 66663, "name": "KSLV-II R/B", "group": "last-30-days", "lat": -22.899604874318705, "lon": -84.92839844200607, "alt_km": 546.4449091438619, "timestamp": "2025-12-10T09:57:43.490471+00:00", "meta": {"OBJECT_NAME": "KSLV-II R/B", "OBJECT_ID": "2025-274P", "EPOCH": "2025-12-09T08:24:04.565376", "MEAN_MOTION": 14.97241242, "ECCENTRICITY": 0.0050162, "INCLINATION": 97.7404, "RA_OF_ASC_NODE": 270.7232, "ARG_OF_PERICENTER": 331.3188, "MEAN_ANOMALY": 28.5276, "EPHEMERIS_TYPE": 0, "CLASSIFICATION_TYPE": "U", "NORAD_CAT_ID": 66663, "ELEMENT_SET_NO": 999, "REV_AT_EPOCH": 190, "BSTAR": 0.00033078, "MEAN_MOTION_DOT": 3.867e-05, "MEAN_MOTION_DDOT": 0}, "tle": {"line1": "1 66663U 25274P   25343.35005284  .00003867  00000+0  33078-3 0  9998", "line2": "2 66663  97.7404 270.7232 0050162 331.3188  28.5276 14.97241242  1900"}}, "geometry": {"type": "Point", "coordinates": [-84.92839844200607, -22.899604874318705]}}, {"type": "Feature", "properties": {"norad_id": 66664, "name": "SOYUZ-MS 28", "group": "last-30-days", "lat": 10.01184296172603, "lon": 162.0293574498094, "alt_km": 419.45846876010273, "timestamp": "2025-12-10T09:57:43.490484+00:00", "meta": {"OBJECT_NAME": "SOYUZ-MS 28", "OBJECT_ID": "2025-275A", "EPOCH": "2025-12-09T21:31:25.697280", "MEAN_MOTION": 15.4945904, "ECCENTRICITY": 0.0003347, "INCLINATION": 51.6313, "RA_OF_ASC_NODE": 156.5563, "ARG_OF_PERICENTER": 226.2924, "MEAN_ANOMALY": 133.7787, "EPHEMERIS_TYPE": 0, "CLASSIFICATION_TYPE": "U", "NORAD_CAT_ID": 66664, "ELEMENT_SET_NO": 999, "REV_AT_EPOCH": 200, "BSTAR": 0.00027325, "MEAN_MOTION_DOT": 0.00014877, "MEAN_MOTION_DDOT": 0}, "tle": {"line1": "1 66664U 25275A   25343.89682520  .00014877  00000+0  27325-3 0  9994", "line2": "2 66664  51.6313 156.5563 0003347 226.2924 133.7787 15.49459040  2003"}}, "geometry": {"type": "Point", "coordinates": [162.0293574498094, 10.01184296172603]}}, {"type": "Feature", "properties": {"norad_id": 66820, "name": "KOMPSAT-7", "group": "last-30-days", "lat": 48.87673690549106, "lon": -78.51669355271935, "alt_km": 574.0851914747454, "timestamp": "2025-12-10T09:57:43.490494+00:00", "meta": {"OBJECT_NAME": "KOMPSAT-7", "OBJECT_ID": "2025-279A", "EPOCH": "2025-12-09T14:30:32.266368", "MEAN_MOTION": 14.98378319, "ECCENTRICITY": 0.00094634, "INCLINATION": 97.6403, "RA_OF_ASC_NODE": 289.534, "ARG_OF_PERICENTER": 231.7406, "MEAN_ANOMALY": 128.2966, "EPHEMERIS_TYPE": 0, "CLASSIFICATION_TYPE": "U", "NORAD_CAT_ID": 66820, "ELEMENT_SET_NO": 999, "REV_AT_EPOCH": 118, "BSTAR": 0.00038973743, "MEAN_MOTION_DOT": 4.593e-05, "MEAN_MOTION_DDOT": 0}, "tle": {"line1": "1 66820U 25279A   25343.60454012  .00004593  00000+0  38974-3 0  9990", "line2": "2 66820  97.6403 289.5340 0009463 231.7406 128.2966 14.98378319  1186"}}, "geometry": {"type": "Point", "coordinates": [-78.51669355271935, 48.87673690549106]}}, {"type": "Feature", "properties": {"norad_id": 66877, "name": "ZQ-3 R/B", "group": "last-30-days", "lat": 11.714967724513532, "lon": 74.29157308035602, "alt_km": 1239.1326816712153, "timestamp": "2025-12-10T09:57:43.490506+00:00", "meta": {"OBJECT_NAME": "ZQ-3 R/B", "OBJECT_ID": "2025-282A", "EPOCH": "2025-12-09T14:03:36.956160", "MEAN_MOTION": 14.50884242, "ECCENTRICITY": 0.0814789, "INCLINATION": 56.9538, "RA_OF_ASC_NODE": 69.6744, "ARG_OF_PERICENTER": 214.5064, "MEAN_ANOMALY": 140.0407, "EPHEMERIS_TYPE": 0, "CLASSIFICATION_TYPE": "U", "NORAD_CAT_ID": 66877, "ELEMENT_SET_NO": 999, "REV_AT_EPOCH": 93, "BSTAR": 0.00027722, "MEAN_MOTION_DOT": 0.01312735, "MEAN_MOTION_DDOT": 7.3328e-06}, "tle": {"line1": "1 66877U 25282A   25343.58584440  .01312735  73328-5  27722-3 0  9991", "line2": "2 66877  56.9538  69.6744 0814789 214.5064 140.0407 14.50884242   933"}}, "geometry": {"type": "Point", "coordinates": [74.29157308035602, 11.714967724513532]}}, {"type": "Feature", "properties": {"norad_id": 66906, "name": "1998-067XS", "group": "last-30-days", "lat": 26.163642770246472, "lon": 176.8517147266908, "alt_km": 414.89448619127506, "timestamp": "2025-12-10T09:57:43.490517+00:00", "meta": {"OBJECT_NAME": "1998-067XS", "OBJECT_ID": "1998-067XS", "EPOCH": "2025-12-10T00:31:58.658880", "MEAN_MOTION": 15.50350034, "ECCENTRICITY": 0.0003912, "INCLINATION": 51.6303, "RA_OF_ASC_NODE": 155.8936, "ARG_OF_PERICENTER": 190.7132, "MEAN_ANOMALY": 169.3774, "EPHEMERIS_TYPE": 0, "CLASSIFICATION_TYPE": "U", "NORAD_CAT_ID": 66906, "ELEMENT_SET_NO": 999, "REV_AT_EPOCH": 119, "BSTAR": 0.00063424, "MEAN_MOTION_DOT": 0.00036365, "MEAN_MOTION_DDOT": 0}, "tle": {"line1": "1 66906U 98067XS  25344.02220670  .00036365  00000+0  63424-3 0  9998", "line2": "2 66906  51.6303 155.8936 0003912 190.7132 169.3774 15.50350034  1196"}}, "geometry": {"type": "Point", "coordinates": [176.8517147266908, 26.163642770246472]}}, {"type": "Feature", "properties": {"norad_id": 66907, "name": "1998-067XT", "group": "last-30-days", "lat": 32.36639174665412, "lon": -175.93199477143278, "alt_km": 412.79755704275794, "timestamp": "2025-12-10T09:57:43.490529+00:00", "meta": {"OBJECT_NAME": "1998-067XT", "OBJECT_ID": "1998-067XT", "EPOCH": "2025-12-09T12:07:37.114752", "MEAN_MOTION": 15.50864429, "ECCENTRICITY": 0.00048036, "INCLINATION": 51.6307, "RA_OF_ASC_NODE": 158.4423, "ARG_OF_PERICENTER": 208.5081, "MEAN_ANOMALY": 151.5646, "EPHEMERIS_TYPE": 0, "CLASSIFICATION_TYPE": "U", "NORAD_CAT_ID": 66907, "ELEMENT_SET_NO": 999, "REV_AT_EPOCH": 111, "BSTAR": 0.0012921241, "MEAN_MOTION_DOT": 0.00076342, "MEAN_MOTION_DDOT": 0}, "tle": {"line1": "1 66907U 98067XT  25343.50529068  .00076342  00000+0  12921-2 0  9998", "line2": "2 66907  51.6307 158.4423 0004803 208.5081 151.5646 15.50864429  1113"}}, "geometry": {"type": "Point", "coordinates": [-175.93199477143278, 32.36639174665412]}}, {"type": "Feature", "properties": {"norad_id": 66908, "name": "1998-067XU", "group": "last-30-days", "lat": 33.243064286800184, "lon": -174.7905305551787, "alt_km": 412.59175622014845, "timestamp": "2025-12-10T09:57:43.490542+00:00", "meta": {"OBJECT_NAME": "1998-067XU", "OBJECT_ID": "1998-067XU", "EPOCH": "2025-12-09T22:56:49.308000", "MEAN_MOTION": 15.50986187, "ECCENTRICITY": 0.0004997, "INCLINATION": 51.6304, "RA_OF_ASC_NODE": 156.202, "ARG_OF_PERICENTER": 209.1255, "MEAN_ANOMALY": 150.9456, "EPHEMERIS_TYPE": 0, "CLASSIFICATION_TYPE": "U", "NORAD_CAT_ID": 66908, "ELEMENT_SET_NO": 999, "REV_AT_EPOCH": 118, "BSTAR": 0.0013761, "MEAN_MOTION_DOT": 0.00081745, "MEAN_MOTION_DDOT": 0}, "tle": {"line1": "1 66908U 98067XU  25343.95612625  .00081745  00000+0  13761-2 0  9996", "line2": "2 66908  51.6304 156.2020 0004997 209.1255 150.9456 15.50986187  1189"}}, "geometry": {"type": "Point", "coordinates": [-174.7905305551787, 33.243064286800184]}}]}